{
  "type": "FeatureCollection",
  "features": [
    {
      "type": "Feature",
      "geometry": {
        "type": "Polygon",
        "coordinates": [
          [
            [
              -87.7235867375774,
              41.83346642153484
            ],
            [
              -87.72320725682869,
              41.83346642153484
            ],
            [
              -87.72320725682869,
              41.833349651657755
            ],
            [
              -87.7235867375774,
              41.833349651657755
            ],
            [
              -87.7235867375774,
              41.83346642153484
            ]
          ]
        ]
      },
      "properties": {
        "label": "car",
        "confidence": 0.71
      }
    },
    {
      "type": "Feature",
      "geometry": {
        "type": "Polygon",
        "coordinates": [
          [
            [
              -87.72085721733998,
              41.82898459830571
            ],
            [
              -87.7169786899643,
              41.82898459830571
            ],
            [
              -87.7169786899643,
              41.82614276142728
            ],
            [
              -87.72085721733998,
              41.82614276142728
            ],
            [
              -87.72085721733998,
              41.82898459830571
            ]
          ]
        ]
      },
      "properties": {
        "label": "truck",
        "confidence": 0.39
      }
    }
  ]
}